COSMOS 2497             
1 39762U 14028B   25077.54040050  .00000037  00000+0  19827-3 0  9990
2 39762  82.4524  35.6165 0020398 351.3995   8.6732 12.42857364490918
COSMOS 2498             
1 39763U 14028C   25077.55421685  .00000041  00000+0  22324-3 0  9990
2 39763  82.4487  34.2960 0021106 350.7466   9.3222 12.42958969490947
COSMOS 2499 (RS-47)     
1 39765U 14028E   25077.82741987  .00000036  00000+0  95553-4 0  9991
2 39765  82.4525 199.6865 0231165 350.9729   8.7249 12.82887711506854
HODOYOSHI-4             
1 40011U 14033B   25077.83123321  .00004210  00000+0  48104-3 0  9997
2 40011  97.5590 279.9588 0024728  16.8288 343.3743 14.86325598581133
UNISAT-6                
1 40012U 14033C   25077.86381186  .00012108  00000+0  14169-2 0  9994
2 40012  97.7312 236.4514 0049501 126.3311 234.2488 14.84311498578520
DEIMOS-2                
1 40013U 14033D   25077.82614494  .00006301  00000+0  63420-3 0  9995
2 40013  97.6458 322.1768 0002336  71.8422 288.3052 14.91524297582665
BUGSAT-1 (TITA)         
1 40014U 14033E   25077.86219820  .00013659  00000+0  84480-3 0  9997
2 40014  98.0830 139.9270 0030707 289.1479  70.6425 15.09569734587011
SAUDISAT 4              
1 40016U 14033G   25077.48312322  .00002901  00000+0  39696-3 0  9995
2 40016  97.6949 236.4703 0046972 116.0336 244.5724 14.78485097578719
APRIZESAT 9             
1 40018U 14033J   25077.83996419  .00003115  00000+0  47383-3 0  9991
2 40018  97.8389 219.2671 0066573 223.5747 136.0192 14.73200144576628
BRITE-CA1 (TORONTO)     
1 40020U 14033L   25077.81612651  .00003337  00000+0  52317-3 0  9994
2 40020  97.9106 212.2610 0079467 294.7011  64.5938 14.71233449575337
DUCHIFAT-1              
1 40021U 14033M   25077.46611563  .00043523  00000+0  18226-2 0  9998
2 40021  98.1014  84.8543 0007292 232.6545 127.4026 15.23387850585643
NANOSATC-BR1            
1 40024U 14033Q   25077.49682910  .00029473  00000+0  15722-2 0  9994
2 40024  98.0906  69.8358 0003794 355.5805   4.5391 15.15107274584616
QB50P1                  
1 40025U 14033R   25077.82276838  .00024755  00000+0  15911-2 0  9998
2 40025  98.0780  55.9568 0010341 347.9707  12.1271 15.08369620584662
DTUSAT-2                
1 40030U 14033W   25077.45375695  .00020832  00000+0  14168-2 0  9999
2 40030  98.0479  45.3959 0009321 354.8690   5.2439 15.06325355583870
FLOCK 1C-4              
1 40031U 14033X   25077.46421760  .00076072  00000+0  25679-2 0  9992
2 40031  98.0919  78.1871 0001998 242.9834 117.1201 15.30385304584807
QB50P2                  
1 40032U 14033Y   25077.87677581  .00019939  00000+0  13530-2 0  9994
2 40032  98.0363  45.6069 0006525 285.4121  74.6384 15.06439118584435
PERSEUS-M1              
1 40039U 14033AF  25077.81327234  .00007007  00000+0  67647-3 0  9994
2 40039  97.9241  11.6464 0012611  15.2845 344.8752 14.93114684583132
POLYITAN-1              
1 40042U 14033AJ  25077.46409901  .00033053  00000+0  17624-2 0  9990
2 40042  98.1010  62.0417 0007628 291.3910  68.6506 15.15077866584182
TIGRISAT                
1 40043U 14033AK  25077.39210788  .00008584  00000+0  10543-2 0  9990
2 40043  97.7238 235.4297 0053103 127.9830 232.6198 14.82278133578036
AISAT                   
1 40054U 14034B   25077.59904096  .00020695  00000+0  17645-2 0  9994
2 40054  98.3000 314.6745 0007050 311.0161  49.0449 14.97748284578767
CANX-4                  
1 40055U 14034C   25077.66721848  .00003411  00000+0  45906-3 0  9994
2 40055  98.3730 289.9381 0013793  37.4847 322.7323 14.79880560577157
CANX-5                  
1 40056U 14034D   25077.53514079  .00003441  00000+0  46290-3 0  9997
2 40056  98.3733 289.8181 0013803  38.0714 322.1469 14.79892534567912
VELOX-I                 
1 40057U 14034E   25077.85450372  .00013997  00000+0  13897-2 0  9991
2 40057  98.3053 312.9390 0007777 338.2343  21.8542 14.91838164578576
GONETS-M 10             
1 40063U 14036C   25077.79753961  .00000044  00000+0  24176-3 0  9995
2 40063  82.5085 230.4881 0022137  57.5391 302.7825 12.42928896485874
METEOR-M 2              
1 40069U 14037A   25077.90133883  .00000507  00000+0  25178-3 0  9997
2 40069  98.4632  66.2348 0004575 283.4953  76.5715 14.21245025554648
DX1                     
1 40071U 14037C   25077.84465905  .00005760  00000+0  64009-3 0  9998
2 40071  98.3399   9.3821 0006596 323.8802  36.1966 14.87593235578435
UKUBE-1                 
1 40074U 14037F   25077.83237623  .00025282  00000+0  18724-2 0  9997
2 40074  98.3843  33.0806 0000517 100.6870 259.4411 15.03121499579908
GAOFEN-2                
1 40118U 14049A   25077.87394549  .00003284  00000+0  43474-3 0  9993
2 40118  98.0698 136.0595 0004390 231.1618 128.9203 14.80619250571872
BRITE-PL2 (HEWELIUSZ)   
1 40119U 14049B   25077.27589886  .00006727  00000+0  66915-3 0  9998
2 40119  97.8823 182.4046 0015099 176.7269 183.4051 14.91904432573409
CBERS 4                 
1 40336U 14079A   25077.88594972  .00000482  00000+0  18247-3 0  9998
2 40336  98.3625 144.5406 0000969 131.6624 228.4645 14.35498533538655
SMAP                    
1 40376U 15003A   25077.48997019  .00001817  00000+0  36096-3 0  9990
2 40376  98.1311  86.0022 0001616  94.5530 265.5857 14.63342725540973
GONETS-M 11             
1 40552U 15020A   25077.55262799  .00000059  00000+0  35234-3 0  9993
2 40552  82.4865 314.8777 0015533 279.0178  80.9143 12.42890100452136
GONETS-M 12             
1 40553U 15020B   25077.60502209  .00000041  00000+0  22888-3 0  9995
2 40553  82.4901 315.8376 0014056 263.0143  96.9338 12.42899222452135
GONETS-M 13             
1 40554U 15020C   25077.82098827  .00000059  00000+0  35820-3 0  9995
2 40554  82.4859 314.4660 0012523 246.5187 113.4577 12.42889872452219
DMC3-FM1                
1 40715U 15032A   25077.87815693  .00002262  00000+0  27208-3 0  9999
2 40715  97.7115 314.3296 0007044 107.0728 253.1259 14.84857295522321
DMC3-FM2                
1 40716U 15032B   25077.83272383  .00002044  00000+0  24626-3 0  9998
2 40716  97.7171 315.5430 0008798 112.8039 247.4106 14.84887507522318
DMC3-FM3                
1 40717U 15032C   25077.80772999  .00002305  00000+0  27776-3 0  9993
2 40717  97.7223 316.9277 0010270 110.5402 249.6916 14.84759210522310
CARBONITE 1 (CBNT-1)    
1 40718U 15032D   25077.85766298  .00005805  00000+0  75031-3 0  9999
2 40718  97.6463 270.9930 0014732 352.0418   8.0559 14.81210017521883
DEORBITSAIL             
1 40719U 15032E   25077.59458435  .00017878  00000+0  16397-2 0  9994
2 40719  97.6530 299.1214 0010925 310.2555  49.7709 14.94889787522975
2015-049A               
1 40899U 15049A   25077.80026843  .00698369  22013-3  14827-2 0  9997
2 40899  97.4185 112.5533 0001782 134.2334 225.9090 15.98764224527407
2015-049G               
1 40905U 15049G   25077.82978209  .00034149  00000+0  83180-3 0  9996
2 40905  97.5103  97.9718 0011267  87.3679 272.8856 15.40784593525829
LILACSAT-2              
1 40908U 15049K   25077.83698689  .00025886  00000+0  73511-3 0  9996
2 40908  97.5143  96.2998 0012048  97.6837 262.5775 15.36103973525510
COSMOS 2507             
1 40920U 15050A   25077.46903967  .00000054  00000+0  31584-3 0  9993
2 40920  82.4984   3.3681 0008333 266.0586  93.9541 12.42907197430249
COSMOS 2508             
1 40921U 15050B   25077.58007093  .00000048  00000+0  27425-3 0  9994
2 40921  82.4937   1.9765 0013198 301.9361  58.0434 12.42892039430241
COSMOS 2509             
1 40922U 15050C   25077.52361038  .00000060  00000+0  36016-3 0  9991
2 40922  82.4943   2.0945 0014023 321.4077  38.5999 12.42914309430277
LQSAT                   
1 40958U 15057A   25077.88688209  .00002160  00000+0  32121-3 0  9994
2 40958  97.6593  89.5920 0016114 314.0888  45.8995 14.75846004508119
LINGQIAO VIDEO A        
1 40959U 15057B   25077.88295894  .00002924  00000+0  42713-3 0  9995
2 40959  97.6565  90.8638 0015845 313.0000  46.9882 14.76367928508206
LINGQIAO VIDEO B        
1 40960U 15057C   25077.88462384  .00002715  00000+0  39625-3 0  9993
2 40960  97.6557  92.0889 0016017 312.9713  47.0154 14.76452587508246
JILIN-1                 
1 40961U 15057D   25077.83767938  .00002519  00000+0  36235-3 0  9998
2 40961  97.6549  95.2325 0015881 308.2739  51.7042 14.77135692508369
FOX-1A (AO-85)          
1 40967U 15058D   25077.57825053  .00012370  00000+0  10587-2 0  9996
2 40967  64.7753 251.0940 0173193 221.5470 137.2372 14.86959771 45726
SINOD-D 1               
1 40968U 15058E   25077.59729262  .00017870  00000+0  14249-2 0  9993
2 40968  64.7757 240.3125 0163950 220.5768 138.3032 14.90406920 48621
ELEKTRO-L 2             
1 41105U 15074A   25077.32403648 -.00000109  00000+0  00000+0 0  9998
2 41105   5.5399  76.1229 0002776 232.3189 329.8081  1.00272465 33937
TELEOS-1                
1 41169U 15077D   25077.06375810  .00134882  00000+0  14720-2 0  9993
2 41169  14.9773 233.3017 0001890 300.5389  59.4752 15.61447816513227
DAMPE                   
1 41173U 15078A   25077.83356114  .00003861  00000+0  13955-3 0  9992
2 41173  97.4479  76.8785 0010698 247.5854 112.4253 15.29025156514923
ORBCOMM FM114           
1 41179U 15081A   25077.28021527  .00002529  00000+0  58179-3 0  9995
2 41179  47.0037 356.1651 0002670 295.3220  64.7389 14.57985173491203
ORBCOMM FM110           
1 41182U 15081D   25077.87272607  .00003789  00000+0  85291-3 0  9995
2 41182  47.0028 352.7362 0001622  78.7936 281.3132 14.57993627491342
ORBCOMM FM112           
1 41184U 15081F   25077.51403949  .00002658  00000+0  61026-3 0  9997
2 41184  46.9973 263.5023 0001121 291.7151  68.3615 14.57932181492432
ORBCOMM FM113           
1 41185U 15081G   25076.94277131  .00002842  00000+0  65004-3 0  9991
2 41185  46.9992 266.5125 0001010 307.4192  52.6601 14.57919980492339
ORBCOMM FM108           
1 41187U 15081J   25077.58116913  .00003525  00000+0  79708-3 0  9999
2 41187  47.0032 174.7995 0003779 252.5085 107.5388 14.57932473493579
